     2.10           NAVIGATION DATA     GPS(GPS)            RINEX VERSION / TYPE
cnvtToRINEX 2.11.0  Stan Thomas         26-Mar-11 14:08 UTC PGM / RUN BY / DATE 
----------------------------------------------------------- COMMENT             
    0.1676D-07  0.7451D-08 -0.1192D-06 -0.5960D-07          ION ALPHA           
    0.1106D+06  0.1638D+05 -0.2621D+06 -0.6554D+05          ION BETA            
    0.000000000000D+00-0.888178419700D-15   589824       92 DELTA-UTC: A0,A1,T,W
    15                                                      LEAP SECONDS        
                                                            END OF HEADER       
29 11  3 24 14  0  0.0 0.194732565433D-03 0.284217094304D-11 0.000000000000D+00
    0.400000000000D+01-0.152187500000D+02 0.481091467962D-08-0.263407474214D+01
   -0.802800059319D-06 0.268867297564D-02 0.627711415291D-05 0.515354573631D+04
    0.396000000000D+06 0.260770320892D-07-0.750766410080D+00 0.651925802231D-07
    0.961411105100D+00 0.255156250000D+03-0.125591938864D+01-0.805354974839D-08
    0.237152735506D-09 0.100000000000D+01 0.162800000000D+04 0.000000000000D+00
    0.240000000000D+01 0.000000000000D+00-0.884756445885D-08 0.400000000000D+01
    0.388818000000D+06 0.400000000000D+01 0.000000000000D+00 0.000000000000D+00
10 11  3 24 14  0  0.0-0.697197392583D-04-0.102318153949D-11 0.000000000000D+00
    0.103000000000D+03 0.900937500000D+02 0.475841249269D-08 0.161218728683D+01
    0.476650893688D-05 0.101169727277D-01 0.878609716892D-05 0.515359357071D+04
    0.396000000000D+06-0.204890966415D-06 0.132816048802D+01 0.931322574615D-07
    0.949663717854D+00 0.207718750000D+03 0.702168537738D+00-0.819391273793D-08
   -0.109647424398D-09 0.100000000000D+01 0.162800000000D+04 0.000000000000D+00
    0.340000000000D+01 0.000000000000D+00-0.279396772385D-08 0.103000000000D+03
    0.388818000000D+06 0.400000000000D+01 0.000000000000D+00 0.000000000000D+00
26 11  3 24 14  0  0.0-0.153652392328D-03-0.101181285572D-10 0.000000000000D+00
    0.360000000000D+02 0.265312500000D+02 0.424803409053D-08-0.655880310219D+00
    0.173225998878D-05 0.204296464799D-01 0.311248004436D-05 0.515364331055D+04
    0.396000000000D+06-0.502914190292D-07 0.242861797302D+01 0.283122062683D-06
    0.987847070538D+00 0.334062500000D+03 0.113068184797D+01-0.844785188694D-08
   -0.664313385605D-10 0.100000000000D+01 0.162800000000D+04 0.000000000000D+00
    0.240000000000D+01 0.000000000000D+00-0.651925802231D-08 0.360000000000D+02
    0.389868000000D+06 0.400000000000D+01 0.000000000000D+00 0.000000000000D+00
15 11  3 24 14  0  0.0-0.140761025250D-03 0.306954461848D-11 0.000000000000D+00
    0.390000000000D+02 0.452500000000D+02 0.491556189574D-08 0.179667303750D-01
    0.226870179176D-05 0.340003531892D-02 0.221095979214D-05 0.515358963203D+04
    0.396000000000D+06 0.670552253723D-07 0.233562008493D+01-0.577419996262D-07
    0.950458003374D+00 0.330968750000D+03-0.700160419349D-01-0.859000066515D-08
   -0.653598653579D-10 0.100000000000D+01 0.162800000000D+04 0.000000000000D+00
    0.240000000000D+01 0.000000000000D+00-0.977888703346D-08 0.390000000000D+02
    0.391338000000D+06 0.400000000000D+01 0.000000000000D+00 0.000000000000D+00
18 11  3 24 14  0  0.0 0.128177460283D-03 0.204636307899D-11 0.000000000000D+00
    0.950000000000D+02 0.110125000000D+03 0.499913680554D-08 0.214653555911D+01
    0.548548996449D-05 0.120202121325D-01 0.949949026108D-05 0.515377622604D+04
    0.396000000000D+06-0.167638063431D-06 0.132355955214D+01-0.281259417534D-06
    0.933579726474D+00 0.181281250000D+03-0.226922859809D+01-0.817212611614D-08
   -0.692886004340D-10 0.100000000000D+01 0.162800000000D+04 0.000000000000D+00
    0.240000000000D+01 0.000000000000D+00-0.107102096081D-07 0.950000000000D+02
    0.392652000000D+06 0.400000000000D+01 0.000000000000D+00 0.000000000000D+00
30 11  3 24 14  0  0.0 0.331656076014D-03 0.295585778076D-11 0.000000000000D+00
    0.720000000000D+02-0.500937500000D+02 0.446375736198D-08 0.561605162984D+00
   -0.259652733803D-05 0.125746771228D-01 0.944919884205D-05 0.515365891838D+04
    0.396000000000D+06-0.143423676491D-06-0.187812651677D+01-0.540167093277D-07
    0.959594270565D+00 0.201000000000D+03 0.151927956277D+01-0.819426989566D-08
    0.337871216549D-09 0.100000000000D+01 0.162800000000D+04 0.000000000000D+00
    0.340000000000D+01 0.000000000000D+00-0.791624188423D-08 0.720000000000D+02
    0.392916000000D+06 0.400000000000D+01 0.000000000000D+00 0.000000000000D+00
16 11  3 24 14  0  0.0-0.160036142915D-03-0.284217094304D-11 0.000000000000D+00
    0.590000000000D+02-0.430000000000D+02 0.406481217289D-08 0.187420872560D+01
   -0.210851430893D-05 0.629562558606D-02 0.905059278011D-05 0.515377446175D+04
    0.396000000000D+06 0.502914190292D-07-0.180224705967D+01 0.102445483208D-06
    0.975212797985D+00 0.212937500000D+03-0.156976379336D+00-0.776175187955D-08
    0.339657005220D-09 0.100000000000D+01 0.162800000000D+04 0.000000000000D+00
    0.240000000000D+01 0.000000000000D+00-0.977888703346D-08 0.590000000000D+02
    0.395838000000D+06 0.400000000000D+01 0.000000000000D+00 0.000000000000D+00
 2 11  3 24 16  0  0.0 0.326783396304D-03 0.193267624127D-11 0.000000000000D+00
    0.370000000000D+02-0.568750000000D+01 0.524093259159D-08 0.628539364639D+00
   -0.279396772385D-06 0.101185819367D-01 0.854581594467D-05 0.515372735214D+04
    0.403200000000D+06 0.987201929092D-07 0.242714562790D+00 0.121071934700D-06
    0.939576122351D+00 0.203593750000D+03-0.304729249923D+01-0.832963267692D-08
   -0.367515308488D-09 0.100000000000D+01 0.162800000000D+04 0.000000000000D+00
    0.240000000000D+01 0.000000000000D+00-0.172294676304D-07 0.370000000000D+02
    0.396018000000D+06 0.400000000000D+01 0.000000000000D+00 0.000000000000D+00
26 11  3 24 16  0  0.0-0.153725501150D-03-0.101181285572D-10 0.000000000000D+00
    0.370000000000D+02 0.341875000000D+02 0.414802992495D-08 0.394303225501D+00
    0.202096998692D-05 0.204313832801D-01 0.371411442757D-05 0.515364659882D+04
    0.403200000000D+06-0.257045030594D-06 0.242855785587D+01 0.154599547386D-06
    0.987846413688D+00 0.322593750000D+03 0.113069479773D+01-0.839606401548D-08
   -0.203579908492D-09 0.100000000000D+01 0.162800000000D+04 0.000000000000D+00
    0.240000000000D+01 0.000000000000D+00-0.651925802231D-08 0.370000000000D+02
    0.396018000000D+06 0.400000000000D+01 0.000000000000D+00 0.000000000000D+00
25 11  3 24 16  0  0.0-0.674277544022D-06-0.568434188608D-12 0.000000000000D+00
    0.550000000000D+02-0.442812500000D+02 0.418338854064D-08-0.271399814515D+01
   -0.227428972721D-05 0.532404636033D-03 0.101458281279D-04 0.515368512535D+04
    0.403200000000D+06-0.987201929092D-07-0.184916732485D+01 0.707805156708D-07
    0.962963343106D+00 0.185343750000D+03 0.861570272866D+00-0.780961101593D-08
    0.408231290186D-09 0.100000000000D+01 0.162800000000D+04 0.000000000000D+00
    0.240000000000D+01 0.000000000000D+00 0.465661287308D-08 0.550000000000D+02
    0.396018000000D+06 0.400000000000D+01 0.000000000000D+00 0.000000000000D+00
30 11  3 24 16  0  0.0 0.331677496433D-03 0.295585778076D-11 0.000000000000D+00
    0.810000000000D+02-0.587812500000D+02 0.435196699118D-08 0.161178124952D+01
   -0.314973294735D-05 0.125755701447D-01 0.969134271145D-05 0.515365996552D+04
    0.403200000000D+06 0.000000000000D+00-0.187818549431D+01-0.309199094772D-06
    0.959597908842D+00 0.193656250000D+03 0.151929178984D+01-0.795533137148D-08
    0.414660129402D-09 0.100000000000D+01 0.162800000000D+04 0.000000000000D+00
    0.340000000000D+01 0.000000000000D+00-0.791624188423D-08 0.810000000000D+02
    0.396018000000D+06 0.400000000000D+01 0.000000000000D+00 0.000000000000D+00
21 11  3 24 16  0  0.0-0.132632441819D-03-0.261479726760D-11 0.000000000000D+00
    0.960000000000D+02-0.843750000000D+00 0.522164607395D-08-0.180613609280D+01
   -0.279396772385D-06 0.174982692115D-01 0.838749110699D-05 0.515377388191D+04
    0.403200000000D+06 0.234693288803D-06 0.268950063101D+00-0.931322574615D-07
    0.932277389987D+00 0.196500000000D+03-0.239011432028D+01-0.805890711440D-08
   -0.115719105880D-09 0.100000000000D+01 0.162800000000D+04 0.000000000000D+00
    0.340000000000D+01 0.000000000000D+00-0.116415321827D-07 0.960000000000D+02
    0.396018000000D+06 0.400000000000D+01 0.000000000000D+00 0.000000000000D+00
 5 11  3 24 16  0  0.0-0.134024769068D-03-0.579802872380D-11 0.000000000000D+00
    0.840000000000D+02 0.840625000000D+02 0.463769317854D-08 0.239669927736D+01
    0.439956784248D-05 0.226175319403D-02 0.869482755661D-05 0.515364226723D+04
    0.403200000000D+06-0.428408384323D-07 0.130404582393D+01 0.111758708954D-07
    0.954719359391D+00 0.210968750000D+03 0.273929371035D+00-0.802104839458D-08
   -0.553594488004D-10 0.100000000000D+01 0.162800000000D+04 0.000000000000D+00
    0.240000000000D+01 0.000000000000D+00-0.977888703346D-08 0.840000000000D+02
    0.396018000000D+06 0.400000000000D+01 0.000000000000D+00 0.000000000000D+00
15 11  3 24 16  0  0.0-0.140738673508D-03 0.306954461848D-11 0.000000000000D+00
    0.400000000000D+02 0.417812500000D+02 0.496484966306D-08 0.106828595760D+01
    0.235438346863D-05 0.339909375180D-02 0.237300992012D-05 0.515358783913D+04
    0.403200000000D+06 0.707805156708D-07 0.233555894374D+01 0.596046447754D-07
    0.950457794176D+00 0.323937500000D+03-0.700992629557D-01-0.848713923770D-08
   -0.111790370803D-09 0.100000000000D+01 0.162800000000D+04 0.000000000000D+00
    0.240000000000D+01 0.000000000000D+00-0.977888703346D-08 0.400000000000D+02
    0.396018000000D+06 0.400000000000D+01 0.000000000000D+00 0.000000000000D+00
